NORAD_CAT_ID,OBJECT_NAME,OBJECT_TYPE,EPOCH,MEAN_MOTION,ECCENTRICITY,INCLINATION,RA_OF_ASC_NODE,ARG_OF_PERICENTER,MEAN_ANOMALY,BSTAR,MEAN_MOTION_DOT,MEAN_MOTION_DDOT,TLE_LINE0,TLE_LINE1,TLE_LINE2,SEMIMAJOR_AXIS,PERIOD,APOGEE,PERIGEE,DECAYED
52262.0,STARLINK-3761,PAYLOAD,2022-11-23 15:47:28,15.08833027,0.0002024,53.2172,105.2411,46.3127,313.8033,6.2112e-05,7.000000000000003e-06,0.0,0 STARLINK-3761,1 52262U 22041B   22327.65797303  .00000700  00000-0  62112-4 0  9995,2 52262  53.2172 105.2411 0002024  46.3127 313.8033 15.08833027 34111,6917.901999999999,95.438,541.1669999999998,538.367,0.0
52262.0,STARLINK-3761,PAYLOAD,2022-11-23 18:58:15,15.08834119,0.0002075,53.2175,104.6462,45.8853,314.2309,4.2385e-05,3.86e-06,0.0,0 STARLINK-3761,1 52262U 22041B   22327.79045336  .00000386  00000-0  42385-4 0  9992,2 52262  53.2175 104.6462 0002075  45.8853 314.2309 15.08834119 32919,6917.898,95.438,541.1990000000002,538.328,0.0
52262.0,STARLINK-3761,PAYLOAD,2022-11-24 09:16:42,15.08842637,0.0002061,53.2174,101.9702,45.0165,315.0994,5.1529e-05,5.32e-06,0.0,0 STARLINK-3761,1 52262U 22041B   22328.38660853  .00000532  00000-0  51529-4 0  9998,2 52262  53.2174 101.9702 0002061  45.0165 315.0994 15.08842637 34227,6917.871999999999,95.437,541.163,538.312,0.0
52262.0,STARLINK-3761,PAYLOAD,2022-11-24 15:38:15,15.08845171,0.0002048,53.2175,100.7799,49.4036,310.7135,7.3731e-05,8.86e-06,0.0,0 STARLINK-3761,1 52262U 22041B   22328.65156584  .00000886  00000-0  73731-4 0  9990,2 52262  53.2175 100.7799 0002048  49.4036 310.7135 15.08845171 33045,6917.865,95.437,541.146,538.313,0.0
52262.0,STARLINK-3761,PAYLOAD,2022-11-25 09:07:30,15.08829674,0.0002084,53.217,97.5102,47.0959,313.0208,-1.5634e-06,-3.13e-06,0.0,0 STARLINK-3761,1 52262U 22041B   22329.38021764 -.00000313  00000-0 -15634-5 0  9998,2 52262  53.2170  97.5102 0002084  47.0959 313.0208 15.08829674 34373,6917.9119999999975,95.438,541.219,538.335,0.0
52262.0,STARLINK-3761,PAYLOAD,2022-11-25 12:18:16,15.0883601,0.0002104,53.217,96.9161,41.817,318.2983,6.2192e-05,7.02e-06,0.0,0 STARLINK-3761,1 52262U 22041B   22329.51269307  .00000702  00000-0  62192-4 0  9990,2 52262  53.2170  96.9161 0002104  41.8170 318.2983 15.08836010 33177,6917.893,95.438,541.2130000000002,538.302,0.0
52262.0,STARLINK-3761,PAYLOAD,2022-11-25 15:29:02,15.08839065,0.0002112,53.2169,96.3212,42.1077,318.0077,8.739799999999999e-05,1.103e-05,0.0,0 STARLINK-3761,1 52262U 22041B   22329.64517093  .00001103  00000-0  87398-4 0  9993,2 52262  53.2169  96.3212 0002112  42.1077 318.0077 15.08839065 34418,6917.8830000000025,95.438,541.2090000000002,538.2869999999998,0.0
52262.0,STARLINK-3761,PAYLOAD,2022-11-26 01:01:21,15.08847316,0.0002112,53.2171,94.5366,42.0722,318.0432,0.00010759,1.425e-05,0.0,0 STARLINK-3761,1 52262U 22041B   22330.04260471  .00001425  00000-0  10759-3 0  9997,2 52262  53.2171  94.5366 0002112  42.0722 318.0432 15.08847316 34476,6917.858,95.437,541.184,538.262,0.0
52262.0,STARLINK-3761,PAYLOAD,2022-11-26 12:09:03,15.08844537,0.0002203,53.2171,92.4551,47.7084,312.4094,-1.468e-05,-5.22e-06,0.0,0 STARLINK-3761,1 52262U 22041B   22330.50628961 -.00000522  00000-0 -14680-4 0  9997,2 52262  53.2171  92.4551 0002203  47.7084 312.4094 15.08844537 33320,6917.8669999999975,95.437,541.256,538.2080000000002,0.0
52262.0,STARLINK-3761,PAYLOAD,2022-11-26 15:19:48,15.08871044,0.0002773,53.2172,91.8606,53.6317,306.493,-0.00035604,-5.956e-05,0.0,0 STARLINK-3761,1 52262U 22041B   22330.63876048 -.00005956  00000-0 -35604-3 0  9996,2 52262  53.2172  91.8606 0002773  53.6317 306.4930 15.08871044 34564,6917.786,95.436,541.569,537.732,0.0
52262.0,STARLINK-3761,PAYLOAD,2022-11-27 10:24:27,15.0883892,0.0002135,53.2168,88.2925,43.1938,316.9221,2.0336e-05,3.5e-07,0.0,0 STARLINK-3761,1 52262U 22041B   22331.43365125  .00000035  00000-0  20336-4 0  9992,2 52262  53.2168  88.2925 0002135  43.1938 316.9221 15.08838920 33461,6917.884,95.438,541.226,538.2719999999998,0.0
52262.0,STARLINK-3761,PAYLOAD,2022-11-27 13:35:14,15.08830608,0.0002081,53.2182,87.696,37.4164,322.6973,-7.4255e-05,-1.47e-05,0.0,0 STARLINK-3761,1 52262U 22041B   22331.56613851 -.00001470  00000-0 -74255-4 0  9993,2 52262  53.2182  87.6960 0002081  37.4164 322.6973 15.08830608 34707,6917.909000000002,95.438,541.214,538.3340000000002,0.0
52262.0,STARLINK-3761,PAYLOAD,2022-11-28 07:04:28,15.08833971,0.0001993,53.218,84.4253,37.8817,322.2315,-7.1665e-06,-4.02e-06,0.0,0 STARLINK-3761,1 52262U 22041B   22332.29477720 -.00000402  00000-0 -71665-5 0  9994,2 52262  53.2180  84.4253 0001993  37.8817 322.2315 15.08833971 34819,6917.899,95.438,541.143,538.385,0.0
52262.0,STARLINK-3761,PAYLOAD,2022-11-29 00:33:42,15.0884324,0.0002123,53.2182,81.1552,38.0381,322.0761,3.8254e-05,3.21e-06,0.0,0 STARLINK-3761,1 52262U 22041B   22333.02341039  .00000321  00000-0  38254-4 0  9993,2 52262  53.2182  81.1552 0002123  38.0381 322.0761 15.08843240 34927,6917.87,95.437,541.2040000000002,538.2669999999998,0.0
52262.0,STARLINK-3761,PAYLOAD,2022-11-29 13:16:48,15.08837456,0.0002229,53.2181,78.7763,35.4049,324.7091,3.1679e-05,2.16e-06,0.0,0 STARLINK-3761,1 52262U 22041B   22333.55333737  .00000216  00000-0  31679-4 0  9994,2 52262  53.2181  78.7763 0002229  35.4049 324.7091 15.08837456 35008,6917.888000000001,95.438,541.295,538.211,0.0
52262.0,STARLINK-3761,PAYLOAD,2022-11-30 13:07:35,15.08843266,0.000216,53.2183,74.3165,36.2916,323.8222,8.6819e-05,1.094e-05,0.0,0 STARLINK-3761,1 52262U 22041B   22334.54693468  .00001094  00000-0  86819-4 0  9995,2 52262  53.2183  74.3165 0002160  36.2916 323.8222 15.08843266 33936,6917.87,95.437,541.23,538.241,0.0
52262.0,STARLINK-3761,PAYLOAD,2022-12-01 12:58:22,15.08845902,0.000214,53.2182,69.8554,36.7445,323.3693,4.803600000000001e-05,4.76e-06,0.0,0 STARLINK-3761,1 52262U 22041B   22335.54053267  .00000476  00000-0  48036-4 0  9995,2 52262  53.2182  69.8554 0002140  36.7445 323.3693 15.08845902 34089,6917.861999999999,95.437,541.2080000000002,538.247,0.0
52262.0,STARLINK-3761,PAYLOAD,2022-12-01 16:09:08,15.08845658,0.0002137,53.2194,69.2615,32.6785,327.4339,-9.3225e-06,-4.37e-06,0.0,0 STARLINK-3761,1 52262U 22041B   22335.67301429 -.00000437  00000-0 -93225-5 0  9995,2 52262  53.2194  69.2615 0002137  32.6785 327.4339 15.08845658 35320,6917.863,95.437,541.206,538.25,0.0
52262.0,STARLINK-3761,PAYLOAD,2022-12-02 12:49:08,15.0884323,0.0002206,53.221,65.3972,28.7116,331.3997,0.00011933,1.612e-05,0.0,0 STARLINK-3761,1 52262U 22041B   22336.53413005  .00001612  00000-0  11933-3 0  9993,2 52262  53.2210  65.3972 0002206  28.7116 331.3997 15.08843230 34230,6917.871,95.437,541.262,538.2090000000002,0.0
52262.0,STARLINK-3761,PAYLOAD,2022-12-03 09:29:10,15.08831281,0.0002317,53.2212,61.5329,34.698,325.4163,-4.3532e-05,-9.81e-06,0.0,0 STARLINK-3761,1 52262U 22041B   22337.39526316 -.00000981  00000-0 -43532-4 0  9999,2 52262  53.2212  61.5329 0002317  34.6980 325.4163 15.08831281 35585,6917.906999999997,95.438,541.375,538.169,0.0
52262.0,STARLINK-3761,PAYLOAD,2022-12-03 12:39:57,15.08817243,0.0002271,53.2201,60.9373,37.1174,322.9975,0.00013011,1.782e-05,0.0,0 STARLINK-3761,1 52262U 22041B   22337.52774618  .00001782  00000-0  13011-3 0  9990,2 52262  53.2201  60.9373 0002271  37.1174 322.9975 15.08817243 34389,6917.95,95.439,541.386,538.244,0.0
52262.0,STARLINK-3761,PAYLOAD,2022-12-03 15:50:43,15.08833834,0.0002348,53.2185,60.3407,31.9674,328.146,-5.7417e-05,-1.202e-05,0.0,0 STARLINK-3761,1 52262U 22041B   22337.66022263 -.00001202  00000-0 -57417-4 0  9995,2 52262  53.2185  60.3407 0002348  31.9674 328.1460 15.08833834 34408,6917.899,95.438,541.389,538.14,0.0
52262.0,STARLINK-3761,PAYLOAD,2022-12-04 06:09:11,15.08832122,0.0002295,53.2184,57.6643,29.3704,330.7417,5.2376e-05,5.45e-06,0.0,0 STARLINK-3761,1 52262U 22041B   22338.25638006  .00000545  00000-0  52376-4 0  9995,2 52262  53.2184  57.6643 0002295  29.3704 330.7417 15.08832122 35719,6917.904,95.438,541.357,538.182,0.0
52262.0,STARLINK-3761,PAYLOAD,2022-12-04 12:30:44,15.08829881,0.0002329,53.2185,56.4753,30.6178,329.495,3.2359e-05,2.27e-06,0.0,0 STARLINK-3761,1 52262U 22041B   22338.52134403  .00000227  00000-0  32359-4 0  9993,2 52262  53.2185  56.4753 0002329  30.6178 329.4950 15.08829881 34531,6917.911,95.438,541.388,538.165,0.0
52262.0,STARLINK-3761,PAYLOAD,2022-12-04 17:16:53,15.08832038,0.0002349,53.2185,55.5831,30.7614,329.3516,4.714e-05,4.62e-06,0.0,0 STARLINK-3761,1 52262U 22041B   22338.72006344  .00000462  00000-0  47140-4 0  9992,2 52262  53.2185  55.5831 0002349  30.7614 329.3516 15.08832038 34564,6917.905,95.438,541.395,538.145,0.0
52262.0,STARLINK-3761,PAYLOAD,2022-12-05 05:59:58,15.08835974,0.0002405,53.2191,53.2037,25.8023,334.3088,0.00015419,2.166e-05,0.0,0 STARLINK-3761,1 52262U 22041B   22339.24997956  .00002166  00000-0  15419-3 0  9994,2 52262  53.2191  53.2037 0002405  25.8023 334.3088 15.08835974 34647,6917.893,95.438,541.4209999999998,538.094,0.0
52262.0,STARLINK-3761,PAYLOAD,2022-12-05 21:53:49,15.088486800000002,0.0002512,53.2193,50.2303,31.3942,328.72,1.4097e-05,-6.4e-07,0.0,0 STARLINK-3761,1 52262U 22041B   22339.91237624 -.00000064  00000-0  14097-4 0  9995,2 52262  53.2193  50.2303 0002512  31.3942 328.7200 15.08848680 35960,6917.854,95.437,541.457,537.981,0.0
52262.0,STARLINK-3761,PAYLOAD,2022-12-06 09:01:31,15.08844915,0.0002434,53.2193,48.1485,31.5124,328.6013,0.0001123,1.5e-05,0.0,0 STARLINK-3761,1 52262U 22041B   22340.37605589  .00001500  00000-0  11230-3 0  9996,2 52262  53.2193  48.1485 0002434  31.5124 328.6013 15.08844915 34815,6917.865,95.437,541.414,538.047,0.0
52262.0,STARLINK-3761,PAYLOAD,2022-12-06 12:12:18,15.08834479,0.0002187,53.2192,47.554,32.7382,327.3745,5.1482e-05,5.31e-06,0.0,0 STARLINK-3761,1 52262U 22041B   22340.50854390  .00000531  00000-0  51482-4 0  9994,2 52262  53.2192  47.5540 0002187  32.7382 327.3745 15.08834479 36053,6917.897,95.438,541.275,538.249,0.0
